[{"OBJECT_NAME":"STARLINK-4632","OBJECT_ID":"2022-105AH","EPOCH":"2026-01-05T06:06:15.903936","MEAN_MOTION":15.05646024,"ECCENTRICITY":0.00024143,"INCLINATION":97.6027,"RA_OF_ASC_NODE":248.7794,"ARG_OF_PERICENTER":86.6948,"MEAN_ANOMALY":273.4555,"EPHEMERIS_TYPE":0,"CLASSIFICATION_TYPE":"U","NORAD_CAT_ID":53679,"ELEMENT_SET_NO":999,"REV_AT_EPOCH":18376,"BSTAR":1.4556062e-5,"MEAN_MOTION_DOT":1.49e-6,"MEAN_MOTION_DDOT":0},{"OBJECT_NAME":"STARLINK-4630","OBJECT_ID":"2022-105AJ","EPOCH":"2026-01-05T03:38:42.825120","MEAN_MOTION":15.05651117,"ECCENTRICITY":0.00021389,"INCLINATION":97.6015,"RA_OF_ASC_NODE":248.5921,"ARG_OF_PERICENTER":90.3228,"MEAN_ANOMALY":269.8244,"EPHEMERIS_TYPE":0,"CLASSIFICATION_TYPE":"U","NORAD_CAT_ID":53680,"ELEMENT_SET_NO":999,"REV_AT_EPOCH":18374,"BSTAR":9.6782992e-5,"MEAN_MOTION_DOT":1.336e-5,"MEAN_MOTION_DDOT":0},{"OBJECT_NAME":"STARLINK-4424","OBJECT_ID":"2022-105AK","EPOCH":"2026-01-05T03:21:42.682176","MEAN_MOTION":15.01263208,"ECCENTRICITY":0.00043241,"INCLINATION":97.6018,"RA_OF_ASC_NODE":248.0185,"ARG_OF_PERICENTER":51.0289,"MEAN_ANOMALY":309.132,"EPHEMERIS_TYPE":0,"CLASSIFICATION_TYPE":"U","NORAD_CAT_ID":53681,"ELEMENT_SET_NO":999,"REV_AT_EPOCH":18370,"BSTAR":4.8949473e-5,"MEAN_MOTION_DOT":5.7e-6,"MEAN_MOTION_DDOT":0},{"OBJECT_NAME":"STARLINK-4438","OBJECT_ID":"2022-105AL","EPOCH":"2026-01-05T05:42:19.408896","MEAN_MOTION":15.05650505,"ECCENTRICITY":0.00020995,"INCLINATION":97.6017,"RA_OF_ASC_NODE":248.6236,"ARG_OF_PERICENTER":83.4286,"MEAN_ANOMALY":276.7179,"EPHEMERIS_TYPE":0,"CLASSIFICATION_TYPE":"U","NORAD_CAT_ID":53682,"ELEMENT_SET_NO":999,"REV_AT_EPOCH":18375,"BSTAR":4.0588237e-5,"MEAN_MOTION_DOT":5.25e-6,"MEAN_MOTION_DDOT":0},{"OBJECT_NAME":"STARLINK-4625","OBJECT_ID":"2022-105AM","EPOCH":"2026-01-05T03:30:03.708000","MEAN_MOTION":15.01264544,"ECCENTRICITY":0.00028261,"INCLINATION":97.601,"RA_OF_ASC_NODE":248.0043,"ARG_OF_PERICENTER":55.2885,"MEAN_ANOMALY":304.8605,"EPHEMERIS_TYPE":0,"CLASSIFICATION_TYPE":"U","NORAD_CAT_ID":53683,"ELEMENT_SET_NO":999,"REV_AT_EPOCH":18370,"BSTAR":7.6656353e-5,"MEAN_MOTION_DOT":9.27e-6,"MEAN_MOTION_DDOT":0},{"OBJECT_NAME":"STARLINK-4624","OBJECT_ID":"2022-105AN","EPOCH":"2026-01-05T03:53:41.314272","MEAN_MOTION":15.01263045,"ECCENTRICITY":9.098e-5,"INCLINATION":97.6032,"RA_OF_ASC_NODE":248.0771,"ARG_OF_PERICENTER":185.2265,"MEAN_ANOMALY":174.895,"EPHEMERIS_TYPE":0,"CLASSIFICATION_TYPE":"U","NORAD_CAT_ID":53684,"ELEMENT_SET_NO":999,"REV_AT_EPOCH":18368,"BSTAR":6.6339379e-5,"MEAN_MOTION_DOT":7.94e-6,"MEAN_MOTION_DDOT":0},{"OBJECT_NAME":"STARLINK-4626","OBJECT_ID":"2022-105AP","EPOCH":"2026-01-05T03:19:24.070656","MEAN_MOTION":15.0125981,"ECCENTRICITY":0.00040206,"INCLINATION":97.601,"RA_OF_ASC_NODE":248.007,"ARG_OF_PERICENTER":63.5615,"MEAN_ANOMALY":296.6022,"EPHEMERIS_TYPE":0,"CLASSIFICATION_TYPE":"U","NORAD_CAT_ID":53685,"ELEMENT_SET_NO":999,"REV_AT_EPOCH":18370,"BSTAR":-2.8346781e-5,"MEAN_MOTION_DOT":-4.23e-6,"MEAN_MOTION_DDOT":0},{"OBJECT_NAME":"STARLINK-4467","OBJECT_ID":"2022-105AQ","EPOCH":"2026-01-05T04:15:03.298464","MEAN_MOTION":15.01264347,"ECCENTRICITY":0.00015311,"INCLINATION":97.6,"RA_OF_ASC_NODE":248.0858,"ARG_OF_PERICENTER":86.2481,"MEAN_ANOMALY":273.8919,"EPHEMERIS_TYPE":0,"CLASSIFICATION_TYPE":"U","NORAD_CAT_ID":53686,"ELEMENT_SET_NO":999,"REV_AT_EPOCH":18371,"BSTAR":0.0011735116,"MEAN_MOTION_DOT":0.00015048,"MEAN_MOTION_DDOT":0},{"OBJECT_NAME":"STARLINK-4569","OBJECT_ID":"2022-105AR","EPOCH":"2026-01-05T05:38:20.284800","MEAN_MOTION":15.0565028,"ECCENTRICITY":0.00027085,"INCLINATION":97.6021,"RA_OF_ASC_NODE":248.6269,"ARG_OF_PERICENTER":77.3101,"MEAN_ANOMALY":282.8428,"EPHEMERIS_TYPE":0,"CLASSIFICATION_TYPE":"U","NORAD_CAT_ID":53687,"ELEMENT_SET_NO":999,"REV_AT_EPOCH":18375,"BSTAR":5.1320676e-5,"MEAN_MOTION_DOT":6.8e-6,"MEAN_MOTION_DDOT":0},{"OBJECT_NAME":"STARLINK-4571","OBJECT_ID":"2022-105AS","EPOCH":"2026-01-05T03:11:03.169248","MEAN_MOTION":15.01260905,"ECCENTRICITY":0.00050538,"INCLINATION":97.6014,"RA_OF_ASC_NODE":247.9952,"ARG_OF_PERICENTER":48.9799,"MEAN_ANOMALY":311.1862,"EPHEMERIS_TYPE":0,"CLASSIFICATION_TYPE":"U","NORAD_CAT_ID":53688,"ELEMENT_SET_NO":999,"REV_AT_EPOCH":18370,"BSTAR":4.6578953e-5,"MEAN_MOTION_DOT":5.4e-6,"MEAN_MOTION_DDOT":0},{"OBJECT_NAME":"STARLINK-4570","OBJECT_ID":"2022-105AU","EPOCH":"2026-01-05T03:43:04.297440","MEAN_MOTION":15.01251621,"ECCENTRICITY":0.00029817,"INCLINATION":97.6026,"RA_OF_ASC_NODE":247.9575,"ARG_OF_PERICENTER":89.4291,"MEAN_ANOMALY":270.7275,"EPHEMERIS_TYPE":0,"CLASSIFICATION_TYPE":"U","NORAD_CAT_ID":53690,"ELEMENT_SET_NO":999,"REV_AT_EPOCH":18370,"BSTAR":0.00040646233,"MEAN_MOTION_DOT":5.165e-5,"MEAN_MOTION_DDOT":0},{"OBJECT_NAME":"STARLINK-4560","OBJECT_ID":"2022-105AV","EPOCH":"2026-01-05T03:26:45.422592","MEAN_MOTION":15.05641868,"ECCENTRICITY":0.00023178,"INCLINATION":97.6016,"RA_OF_ASC_NODE":248.5777,"ARG_OF_PERICENTER":88.9108,"MEAN_ANOMALY":271.2384,"EPHEMERIS_TYPE":0,"CLASSIFICATION_TYPE":"U","NORAD_CAT_ID":53691,"ELEMENT_SET_NO":999,"REV_AT_EPOCH":18374,"BSTAR":-1.6967583e-5,"MEAN_MOTION_DOT":-3.06e-6,"MEAN_MOTION_DDOT":0},{"OBJECT_NAME":"STARLINK-4572","OBJECT_ID":"2022-105AW","EPOCH":"2026-01-05T04:08:25.461888","MEAN_MOTION":15.17294055,"ECCENTRICITY":0.00025019,"INCLINATION":97.6265,"RA_OF_ASC_NODE":251.5671,"ARG_OF_PERICENTER":78.4503,"MEAN_ANOMALY":281.7011,"EPHEMERIS_TYPE":0,"CLASSIFICATION_TYPE":"U","NORAD_CAT_ID":53692,"ELEMENT_SET_NO":999,"REV_AT_EPOCH":18391,"BSTAR":0.00146768,"MEAN_MOTION_DOT":0.00029272,"MEAN_MOTION_DDOT":0},{"OBJECT_NAME":"STARLINK-4566","OBJECT_ID":"2022-105AX","EPOCH":"2026-01-05T03:58:39.876384","MEAN_MOTION":15.05650534,"ECCENTRICITY":0.0001695,"INCLINATION":97.6021,"RA_OF_ASC_NODE":248.6916,"ARG_OF_PERICENTER":88.6447,"MEAN_ANOMALY":271.4974,"EPHEMERIS_TYPE":0,"CLASSIFICATION_TYPE":"U","NORAD_CAT_ID":53693,"ELEMENT_SET_NO":999,"REV_AT_EPOCH":18375,"BSTAR":0.0001197414,"MEAN_MOTION_DOT":1.667e-5,"MEAN_MOTION_DDOT":0},{"OBJECT_NAME":"STARLINK-4725","OBJECT_ID":"2022-107A","EPOCH":"2026-01-04T22:19:56.194464","MEAN_MOTION":15.08856204,"ECCENTRICITY":0.0001256,"INCLINATION":53.2169,"RA_OF_ASC_NODE":169.9726,"ARG_OF_PERICENTER":84.6894,"MEAN_ANOMALY":275.4241,"EPHEMERIS_TYPE":0,"CLASSIFICATION_TYPE":"U","NORAD_CAT_ID":53700,"ELEMENT_SET_NO":999,"REV_AT_EPOCH":18523,"BSTAR":0.00019749,"MEAN_MOTION_DOT":2.858e-5,"MEAN_MOTION_DDOT":0},{"OBJECT_NAME":"STARLINK-4711","OBJECT_ID":"2022-107B","EPOCH":"2026-01-04T17:28:28.711776","MEAN_MOTION":15.08834778,"ECCENTRICITY":0.00013104,"INCLINATION":53.2177,"RA_OF_ASC_NODE":170.8441,"ARG_OF_PERICENTER":86.3873,"MEAN_ANOMALY":273.7269,"EPHEMERIS_TYPE":0,"CLASSIFICATION_TYPE":"U","NORAD_CAT_ID":53701,"ELEMENT_SET_NO":999,"REV_AT_EPOCH":18520,"BSTAR":-3.4271818e-5,"MEAN_MOTION_DOT":-8.33e-6,"MEAN_MOTION_DDOT":0}]
