STARLINK-4632           
1 53679U 22105AH  26005.25435074  .00000149  00000+0  14556-4 0  9991
2 53679  97.6027 248.7794 0002414  86.6948 273.4555 15.05646024183765
STARLINK-4630           
1 53680U 22105AJ  26005.15188455  .00001336  00000+0  96783-4 0  9991
2 53680  97.6015 248.5921 0002138  90.3228 269.8244 15.05651117183741
STARLINK-4424           
1 53681U 22105AK  26005.14007734  .00000570  00000+0  48949-4 0  9991
2 53681  97.6018 248.0185 0004324  51.0289 309.1320 15.01263208183707
STARLINK-4438           
1 53682U 22105AL  26005.23772464  .00000525  00000+0  40588-4 0  9992
2 53682  97.6017 248.6236 0002099  83.4286 276.7179 15.05650505183753
STARLINK-4625           
1 53683U 22105AM  26005.14587625  .00000927  00000+0  76656-4 0  9997
2 53683  97.6010 248.0043 0002826  55.2885 304.8605 15.01264544183709
STARLINK-4624           
1 53684U 22105AN  26005.16228373  .00000794  00000+0  66339-4 0  9991
2 53684  97.6032 248.0771 0000909 185.2265 174.8950 15.01263045183688
STARLINK-4626           
1 53685U 22105AP  26005.13847304 -.00000423  00000+0 -28347-4 0  9998
2 53685  97.6010 248.0070 0004020  63.5615 296.6022 15.01259810183703
STARLINK-4467           
1 53686U 22105AQ  26005.17712151  .00015048  00000+0  11735-2 0  9992
2 53686  97.6000 248.0858 0001531  86.2481 273.8919 15.01264347183718
STARLINK-4569           
1 53687U 22105AR  26005.23495700  .00000680  00000+0  51321-4 0  9991
2 53687  97.6021 248.6269 0002708  77.3101 282.8428 15.05650280183759
STARLINK-4571           
1 53688U 22105AS  26005.13267557  .00000540  00000+0  46579-4 0  9992
2 53688  97.6014 247.9952 0005053  48.9799 311.1862 15.01260905183706
STARLINK-4570           
1 53690U 22105AU  26005.15491085  .00005165  00000+0  40646-3 0  9998
2 53690  97.6026 247.9575 0002981  89.4291 270.7275 15.01251621183700
STARLINK-4560           
1 53691U 22105AV  26005.14358128 -.00000306  00000+0 -16968-4 0  9993
2 53691  97.6016 248.5777 0002317  88.9108 271.2384 15.05641868183746
STARLINK-4572           
1 53692U 22105AW  26005.17251692  .00029272  00000+0  14677-2 0  9999
2 53692  97.6265 251.5671 0002501  78.4503 281.7011 15.17294055183915
STARLINK-4566           
1 53693U 22105AX  26005.16573931  .00001667  00000+0  11974-3 0  9998
2 53693  97.6021 248.6916 0001695  88.6447 271.4974 15.05650534183759
STARLINK-4725           
1 53700U 22107A   26004.93051151  .00002858  00000+0  19749-3 0  9999
2 53700  53.2169 169.9726 0001256  84.6894 275.4241 15.08856204185239
STARLINK-4711           
1 53701U 22107B   26004.72811009 -.00000833  00000+0 -34272-4 0  9995
2 53701  53.2177 170.8441 0001310  86.3873 273.7269 15.08834778185201
